SKYSAT-A                
1 39418U 13066C   26199.67071008  .00001389  00000+0  81642-4 0  9992
2 39418  97.3799 248.0646 0020793 200.9298 159.1085 15.13125428693247
SKYSAT-B                
1 40072U 14037D   26199.79615169  .00000567  00000+0  68368-4 0  9991
2 40072  98.3856 160.5681 0005858 161.7870 198.3555 14.88096601650669
SKYSAT-C1               
1 41601U 16040C   26199.80102519  .00004865  00000+0  13746-3 0  9992
2 41601  96.9549 229.8149 0000422 211.1018 149.0202 15.36783549562724
SKYSAT-C4               
1 41771U 16058B   26199.85560970  .00009989  00000+0  18286-3 0  9999
2 41771  96.9169 220.3204 0003536 113.2946 246.8678 15.49511206550373
SKYSAT-C5               
1 41772U 16058C   26199.86488845  .00003754  00000+0  11730-3 0  9992
2 41772  97.0451 239.0806 0002949 151.1874 208.9533 15.33747628548607
SKYSAT-C2               
1 41773U 16058D   26199.78893845  .00006485  00000+0  15037-3 0  9992
2 41773  97.0160 220.7072 0000942 331.9832  28.1366 15.42728957549926
SKYSAT-C3               
1 41774U 16058E   26199.51879048  .00013282  00000+0  20828-3 0  9990
2 41774  96.8991 229.1846 0002701 129.3372 230.8123 15.53801896550977
SKYSAT-C11              
1 42987U 17068A   26198.93692861  .00017166  00000+0  21849-3 0  9999
2 42987  97.4388 349.1483 0001289 155.4215 204.7103 15.59422768488035
SKYSAT-C10              
1 42988U 17068B   26199.84556417  .00005887  00000+0  17493-3 0  9994
2 42988  97.4546 337.0195 0001515 111.4367 248.7038 15.35160017487214
SKYSAT-C9               
1 42989U 17068C   26199.84305985  .00007023  00000+0  16521-3 0  9992
2 42989  97.4468 338.2593 0008324  32.9029 327.2734 15.42267528487635
SKYSAT-C8               
1 42990U 17068D   26199.83330859  .00005594  00000+0  15424-3 0  9993
2 42990  97.4564 336.9289 0001252 104.6670 255.4713 15.37533340487173
SKYSAT-C7               
1 42991U 17068E   26199.82790743  .00005577  00000+0  15397-3 0  9995
2 42991  97.4574 337.9153 0005373   8.9313 351.2026 15.37483144487239
SKYSAT-C6               
1 42992U 17068F   26199.71507521  .00004701  00000+0  14443-3 0  9993
2 42992  97.4612 337.6383 0005025  80.5471 279.6340 15.34204439487158
SKYSAT-C12              
1 43797U 18099AR  26199.80507948  .00010313  00000+0  18640-3 0  9994
2 43797  96.9255 221.7897 0005081  62.4240 297.7528 15.49862140426750
FLOCK 4Q-16             
1 58271U 23174R   26199.80340213  .00013987  00000+0  24683-3 0  9991
2 58271  97.3817 288.6734 0006681  66.8531 293.3424 15.50473661150470
FLOCK 4Q-11             
1 58273U 23174T   26199.77526006  .00013244  00000+0  22978-3 0  9996
2 58273  97.3851 289.2846 0006131  60.9843 299.2022 15.50974343150485
FLOCK 4Q-28             
1 58280U 23174AA  26199.81452561  .00018359  00000+0  25650-3 0  9995
2 58280  97.3879 292.0947 0004564  51.5357 308.6307 15.56900561150669
FLOCK 4Q-27             
1 58282U 23174AC  26199.81585779  .00019845  00000+0  27503-3 0  9995
2 58282  97.3806 291.5001 0003666  58.0257 302.1354 15.57106262150678
PELICAN-1               
1 58296U 23174AS  26199.23901053  .00005303  00000+0  41639-4 0  9994
2 58296  97.4011 301.5070 0006337 192.5328 167.5779 15.72007488151044
FLOCK 4Q-7              
1 58318U 23174BQ  26199.76882865  .00019292  00000+0  26333-3 0  9991
2 58318  97.3904 292.3779 0004200  30.1399 330.0097 15.57520775150663
FLOCK 4Q-2              
1 58320U 23174BS  26199.82469093  .00012618  00000+0  21936-3 0  9994
2 58320  97.3838 289.0468 0004439  39.7975 320.3602 15.50939713150505
FLOCK 4Q-9              
1 58322U 23174BU  26199.77566922  .00015390  00000+0  26210-3 0  9999
2 58322  97.3846 289.1115 0005240  38.5837 321.5789 15.51468399150485
FLOCK 4Q-4              
1 58327U 23174BZ  26199.72883007  .00013650  00000+0  24538-3 0  9993
2 58327  97.3823 288.1691 0005518  65.0881 295.0944 15.49962331150441
FLOCK 4Q-13             
1 58328U 23174CA  26199.77142753  .00012337  00000+0  19946-3 0  9993
2 58328  97.3998 291.5427 0005619  44.8795 315.2911 15.52979261150578
FLOCK 4BE-18            
1 60480U 24149N   26199.80618556  .00010162  00000+0  23411-3 0  9997
2 60480  97.3718 283.8873 0005374 135.2055 224.9627 15.42785680107189
FLOCK 4BE-7             
1 60481U 24149P   26199.77734838  .00015877  00000+0  37954-3 0  9991
2 60481  97.3748 283.1432 0004441 139.2687 220.8892 15.41565116107117
FLOCK 4BE-36            
1 60486U 24149U   26199.76073219  .00009153  00000+0  20536-3 0  9992
2 60486  97.3736 284.5871 0005026 142.8527 217.3070 15.43612741107224
FLOCK 4BE-25            
1 60487U 24149V   26199.68239021  .00007826  00000+0  20083-3 0  9991
2 60487  97.3788 283.0631 0003846 134.4089 225.7472 15.39602608107087
FLOCK 4BE-31            
1 60488U 24149W   26199.76079663  .00011452  00000+0  24267-3 0  9993
2 60488  97.3789 285.5415 0003967 142.4590 217.6937 15.45245590107251
FLOCK 4BE-20            
1 60489U 24149X   26199.53112499  .00007342  00000+0  19307-3 0  9996
2 60489  97.3686 281.7106 0005282 144.5593 215.6004 15.38867209107039
FLOCK 4BE-23            
1 60490U 24149Y   26199.79015894  .00007634  00000+0  20359-3 0  9990
2 60490  97.3773 282.3631 0004916 146.1438 214.0122 15.38422441107058
FLOCK 4BE-17            
1 60492U 24149AA  26199.79491615  .00009104  00000+0  22547-3 0  9996
2 60492  97.3762 283.4317 0004554 137.3085 222.8516 15.40637686107123
FLOCK 4BE-22            
1 60494U 24149AC  26199.74777196  .00009628  00000+0  22740-3 0  9990
2 60494  97.3720 283.6272 0004983 144.1008 216.0574 15.42056124107165
FLOCK 4BE-34            
1 60495U 24149AD  26199.76541953  .00008454  00000+0  20021-3 0  9999
2 60495  97.3775 284.4872 0005095 151.7128 208.4397 15.42016111107196
FLOCK 4BE-32            
1 60497U 24149AF  26199.77684472  .00010833  00000+0  24629-3 0  9998
2 60497  97.3710 284.0673 0005217 148.6595 211.4965 15.43162756107206
FLOCK 4BE-11            
1 60501U 24149AK  26199.75503301  .00009738  00000+0  21585-3 0  9993
2 60501  97.3689 284.3052 0005256 148.8353 211.3207 15.43952981107225
FLOCK 4BE-24            
1 60505U 24149AP  26199.80299757  .00011990  00000+0  26315-3 0  9999
2 60505  97.3701 284.6245 0005285 159.1381 201.0084 15.44188823107247
TANAGER-1               
1 60507U 24149AR  26199.77853940  .00000178  00000+0  57770-5 0  9994
2 60507  97.2320 293.8912 0001980 121.6736 238.4706 15.43916044107916
FLOCK 4BE-29            
1 60509U 24149AT  26199.79061455  .00025598  00000+0  53151-3 0  9990
2 60509  97.3804 286.1681 0003838 167.5223 192.6121 15.45666248107291
FLOCK 4BE-2             
1 60511U 24149AV  26199.79438580  .00041769  00000+0  59512-3 0  9995
2 60511  97.3817 288.0752 0005386 163.1657 196.9778 15.56201399107414
FLOCK 4BE-13            
1 60512U 24149AW  26199.75264541  .00007808  00000+0  18106-3 0  9996
2 60512  97.3710 284.5088 0005340 145.6324 214.5270 15.42675398107239
FLOCK 4BE-27            
1 60513U 24149AX  26199.75165088  .00004771  00000+0  14311-3 0  9993
2 60513  97.3817 281.6281 0004337 170.4642 189.6685 15.34953713106989
FLOCK 4BE-9             
1 60514U 24149AY  26199.77318863  .00010892  00000+0  26013-3 0  9990
2 60514  97.3783 284.3704 0003959 161.4778 198.6614 15.41689556107185
FLOCK 4BE-6             
1 60516U 24149BA  26199.76273398  .00007824  00000+0  19575-3 0  9990
2 60516  97.3780 283.6565 0004647 162.6316 197.5090 15.40376578107134
FLOCK 4BE-14            
1 60517U 24149BB  26199.78098808  .00009462  00000+0  22445-3 0  9994
2 60517  97.3685 283.8422 0005685 165.2975 194.8439 15.41925722107191
FLOCK 4BE-1             
1 60518U 24149BC  26199.76350111  .00009553  00000+0  21441-3 0  9997
2 60518  97.3771 285.2168 0005325 165.2082 194.9322 15.43586903107245
FLOCK 4BE-28            
1 60519U 24149BD  26199.79205388  .00026366  00000+0  53211-3 0  9997
2 60519  97.3738 286.0750 0005497 165.0522 195.0891 15.46484379107321
FLOCK 4BE-5             
1 60559U 24149CV  26199.78628528  .00009032  00000+0  22024-3 0  9994
2 60559  97.3835 284.1086 0004318 161.4219 198.7186 15.41110910107147
FLOCK 4BE-3             
1 60561U 24149CX  26199.74876943  .00009793  00000+0  22810-3 0  9996
2 60561  97.3687 283.9827 0005261 158.6778 201.4689 15.42467890107201
FLOCK 4BE-19            
1 60563U 24149CZ  26199.79547134  .00015469  00000+0  32115-3 0  9996
2 60563  97.3734 285.7335 0006123 164.0300 196.1144 15.45761592107306
FLOCK 4G-8              
1 62613U 25009E   26199.80426436  .00005331  00000+0  18459-3 0  9995
2 62613  97.3998 281.6869 0004353 179.9112 180.2130 15.30283048 83752
FLOCK 4G-13             
1 62621U 25009N   26199.78021789  .00053995  00000+0  98364-3 0  9995
2 62621  97.3940 283.7213 0006736 189.0829 171.0301 15.49283674 83885
FLOCK 4G-9              
1 62622U 25009P   26199.76561847  .00004602  00000+0  16841-3 0  9999
2 62622  97.3951 280.4917 0004435 191.4528 168.6612 15.28543862 83680
FLOCK 4G-7              
1 62624U 25009R   26199.72383084  .00005067  00000+0  17757-3 0  9995
2 62624  97.3934 280.8733 0002949 171.3451 188.7841 15.29914154 83722
FLOCK 4G-12             
1 62625U 25009S   26199.78473295  .00006120  00000+0  21454-3 0  9996
2 62625  97.4013 281.4868 0004551 176.7299 183.3972 15.29817053 83735
FLOCK 4G-11             
1 62629U 25009W   26199.76933998  .00005721  00000+0  20009-3 0  9990
2 62629  97.3915 281.0255 0003042 173.5078 186.6203 15.29924409 83747
PELICAN-2               
1 62631U 25009Y   26199.22155211 -.00000010  00000+0  17209-5 0  9995
2 62631  97.2052 289.7302 0002259 115.4966 244.6514 15.40638954 84335
FLOCK 4G-26             
1 62633U 25009AA  26199.78246755  .00006661  00000+0  23113-3 0  9998
2 62633  97.4009 281.6469 0003996 166.8443 193.2902 15.30120202 83740
FLOCK 4G-28             
1 62634U 25009AB  26199.80117821  .00004764  00000+0  14129-3 0  9992
2 62634  97.4021 284.4794 0002448 154.3646 205.7719 15.35316625 83932
FLOCK 4G-24             
1 62637U 25009AE  26199.53151132  .00005355  00000+0  18470-3 0  9998
2 62637  97.4016 281.7034 0004000 156.3545 203.7881 15.30405179 83725
